FENGYUN 1C DEB          
1 29855U 99025EZ  17345.67496497  .00000351  00000-0  27084-3 0  9999
2 29855  98.1812 230.2721 0218256 289.2527 131.1838 13.87898636550729
